NUSAT-49 (KLARA DAN VO*)
1 60500U 24149AJ  26068.79810190  .00012912  00000+0  43568-3 0  9991
2 60500  97.3807 150.7380 0001132 286.7761  73.3356 15.30828857 86935
STARLINK-35493          
1 65928U 25225U   26068.54194601  .00041033  00000+0  13906-2 0  9999
2 65928  53.1589 166.4946 0001195  80.2123 279.9013 15.30183801 24389
